{
  "type": "FeatureCollection",
  "features": [
    {
      "type": "Feature",
      "properties": {
        "norad_id": 37781,
        "name": "HAIYANG-2A",
        "group": "resource",
        "lat": -35.01284808454083,
        "lon": -3.0328805555946587,
        "alt_km": 974.6790241126864,
        "timestamp": "2025-12-15T10:55:20.786414+00:00",
        "meta_object_name": "HAIYANG-2A",
        "meta_object_id": "2011-043A",
        "meta_epoch": "2025-12-14T22:54:13.863168",
        "meta_mean_motion": 13.78835593,
        "meta_eccentricity": 0.00016507,
        "meta_inclination": 99.3383,
        "meta_ra_of_asc_node": 349.8549,
        "meta_arg_of_pericenter": 80.9689,
        "meta_mean_anomaly": 279.1649,
        "meta_ephemeris_type": 0,
        "meta_classification_type": "U",
        "meta_norad_cat_id": 37781,
        "meta_element_set_no": 999,
        "meta_rev_at_epoch": 72129,
        "meta_bstar": 0.00016465812,
        "meta_mean_motion_dot": 1.24e-06,
        "meta_mean_motion_ddot": 0,
        "tle_line1": "1 37781U 11043A   25348.95432712  .00000124  00000+0  16466-3 0  9992",
        "tle_line2": "2 37781  99.3383 349.8549 0001650  80.9689 279.1649 13.78835593721298"
      },
      "geometry": {
        "type": "Point",
        "coordinates": [
          -3.0328805555946587,
          -35.01284808454083
        ]
      }
    },
    {
      "type": "Feature",
      "properties": {
        "norad_id": 37791,
        "name": "RASAT",
        "group": "resource",
        "lat": -49.9694545792419,
        "lon": -111.04544383236977,
        "alt_km": 689.9117223888088,
        "timestamp": "2025-12-15T10:55:20.786451+00:00",
        "meta_object_name": "RASAT",
        "meta_object_id": "2011-044D",
        "meta_epoch": "2025-12-14T22:55:42.759264",
        "meta_mean_motion": 14.67913772,
        "meta_eccentricity": 0.00218069,
        "meta_inclination": 98.0646,
        "meta_ra_of_asc_node": 78.1798,
        "meta_arg_of_pericenter": 58.3718,
        "meta_mean_anomaly": 52.8575,
        "meta_ephemeris_type": 0,
        "meta_classification_type": "U",
        "meta_norad_cat_id": 37791,
        "meta_element_set_no": 999,
        "meta_rev_at_epoch": 76615,
        "meta_bstar": 0.00013270661,
        "meta_mean_motion_dot": 7.13e-06,
        "meta_mean_motion_ddot": 0,
        "tle_line1": "1 37791U 11044D   25348.95535601  .00000713  00000+0  13271-3 0  9990",
        "tle_line2": "2 37791  98.0646  78.1798 0021806  58.3718  52.8575 14.67913772766155"
      },
      "geometry": {
        "type": "Point",
        "coordinates": [
          -111.04544383236977,
          -49.9694545792419
        ]
      }
    },
    {
      "type": "Feature",
      "properties": {
        "norad_id": 37841,
        "name": "SRMSAT",
        "group": "resource",
        "lat": -13.251969129919086,
        "lon": -48.05434712998919,
        "alt_km": 857.8466990026509,
        "timestamp": "2025-12-15T10:55:20.786469+00:00",
        "meta_object_name": "SRMSAT",
        "meta_object_id": "2011-058D",
        "meta_epoch": "2025-12-14T15:48:49.457664",
        "meta_mean_motion": 14.11512147,
        "meta_eccentricity": 0.00118046,
        "meta_inclination": 19.9714,
        "meta_ra_of_asc_node": 96.3351,
        "meta_arg_of_pericenter": 334.6313,
        "meta_mean_anomaly": 153.0609,
        "meta_ephemeris_type": 0,
        "meta_classification_type": "U",
        "meta_norad_cat_id": 37841,
        "meta_element_set_no": 999,
        "meta_rev_at_epoch": 73171,
        "meta_bstar": 0.00010517798,
        "meta_mean_motion_dot": 4.58e-06,
        "meta_mean_motion_ddot": 0,
        "tle_line1": "1 37841U 11058D   25348.65890576  .00000458  00000+0  10518-3 0  9990",
        "tle_line2": "2 37841  19.9714  96.3351 0011804 334.6313 153.0609 14.11512147731710"
      },
      "geometry": {
        "type": "Point",
        "coordinates": [
          -48.05434712998919,
          -13.251969129919086
        ]
      }
    },
    {
      "type": "Feature",
      "properties": {
        "norad_id": 38012,
        "name": "PLEIADES 1A",
        "group": "resource",
        "lat": -64.35955966806145,
        "lon": 79.62414017708694,
        "alt_km": 705.6924820832501,
        "timestamp": "2025-12-15T10:55:20.786481+00:00",
        "meta_object_name": "PLEIADES 1A",
        "meta_object_id": "2011-076F",
        "meta_epoch": "2025-12-15T00:15:37.203264",
        "meta_mean_motion": 14.58564623,
        "meta_eccentricity": 0.00012837,
        "meta_inclination": 98.182,
        "meta_ra_of_asc_node": 61.7442,
        "meta_arg_of_pericenter": 73.9104,
        "meta_mean_anomaly": 49.2126,
        "meta_ephemeris_type": 0,
        "meta_classification_type": "U",
        "meta_norad_cat_id": 38012,
        "meta_element_set_no": 999,
        "meta_rev_at_epoch": 74514,
        "meta_bstar": 0.00013682103,
        "meta_mean_motion_dot": 5.91e-06,
        "meta_mean_motion_ddot": 0,
        "tle_line1": "1 38012U 11076F   25349.01084726  .00000591  00000+0  13682-3 0  9997",
        "tle_line2": "2 38012  98.1820  61.7442 0001283  73.9104  49.2126 14.58564623745145"
      },
      "geometry": {
        "type": "Point",
        "coordinates": [
          79.62414017708694,
          -64.35955966806145
        ]
      }
    },
    {
      "type": "Feature",
      "properties": {
        "norad_id": 38038,
        "name": "ZIYUAN 1-02C (ZY 1-02C)",
        "group": "resource",
        "lat": 1.4967276351689656,
        "lon": 55.196476301746074,
        "alt_km": 771.101868928692,
        "timestamp": "2025-12-15T10:55:20.786491+00:00",
        "meta_object_name": "ZIYUAN 1-02C (ZY 1-02C)",
        "meta_object_id": "2011-079A",
        "meta_epoch": "2025-12-14T23:47:56.303232",
        "meta_mean_motion": 14.38015597,
        "meta_eccentricity": 0.00072816,
        "meta_inclination": 98.4331,
        "meta_ra_of_asc_node": 54.9637,
        "meta_arg_of_pericenter": 132.2976,
        "meta_mean_anomaly": 351.4258,
        "meta_ephemeris_type": 0,
        "meta_classification_type": "U",
        "meta_norad_cat_id": 38038,
        "meta_element_set_no": 999,
        "meta_rev_at_epoch": 73273,
        "meta_bstar": 0.00023708652,
        "meta_mean_motion_dot": 6.74e-06,
        "meta_mean_motion_ddot": 0,
        "tle_line1": "1 38038U 11079A   25348.99162388  .00000674  00000+0  23709-3 0  9998",
        "tle_line2": "2 38038  98.4331  54.9637 0007281 132.2976 351.4258 14.38015597732737"
      },
      "geometry": {
        "type": "Point",
        "coordinates": [
          55.196476301746074,
          1.4967276351689656
        ]
      }
    },
    {
      "type": "Feature",
      "properties": {
        "norad_id": 38046,
        "name": "ZIYUAN 3-1 (ZY 3-1)",
        "group": "resource",
        "lat": -6.587018121268558,
        "lon": 56.77066407328422,
        "alt_km": 364.6990575827285,
        "timestamp": "2025-12-15T10:55:20.786502+00:00",
        "meta_object_name": "ZIYUAN 3-1 (ZY 3-1)",
        "meta_object_id": "2012-001A",
        "meta_epoch": "2025-12-14T22:42:18.224064",
        "meta_mean_motion": 15.68934649,
        "meta_eccentricity": 0.00016545,
        "meta_inclination": 97.1756,
        "meta_ra_of_asc_node": 55.4157,
        "meta_arg_of_pericenter": 338.2024,
        "meta_mean_anomaly": 21.9168,
        "meta_ephemeris_type": 0,
        "meta_classification_type": "U",
        "meta_norad_cat_id": 38046,
        "meta_element_set_no": 999,
        "meta_rev_at_epoch": 77531,
        "meta_bstar": 0.0004598432,
        "meta_mean_motion_dot": 0.00052937,
        "meta_mean_motion_ddot": 0,
        "tle_line1": "1 38046U 12001A   25348.94604426  .00052937  00000+0  45984-3 0  9990",
        "tle_line2": "2 38046  97.1756  55.4157 0001654 338.2024  21.9168 15.68934649775318"
      },
      "geometry": {
        "type": "Point",
        "coordinates": [
          56.77066407328422,
          -6.587018121268558
        ]
      }
    },
    {
      "type": "Feature",
      "properties": {
        "norad_id": 38338,
        "name": "ARIRANG-3 (KOMPSAT-3)",
        "group": "resource",
        "lat": -42.14172269195424,
        "lon": 116.44386917360454,
        "alt_km": 695.3321715579541,
        "timestamp": "2025-12-15T10:55:20.786512+00:00",
        "meta_object_name": "ARIRANG-3 (KOMPSAT-3)",
        "meta_object_id": "2012-025B",
        "meta_epoch": "2025-12-14T22:24:23.721696",
        "meta_mean_motion": 14.61715997,
        "meta_eccentricity": 0.00052164,
        "meta_inclination": 98.3324,
        "meta_ra_of_asc_node": 303.5395,
        "meta_arg_of_pericenter": 331.4887,
        "meta_mean_anomaly": 28.6028,
        "meta_ephemeris_type": 0,
        "meta_classification_type": "U",
        "meta_norad_cat_id": 38338,
        "meta_element_set_no": 999,
        "meta_rev_at_epoch": 72442,
        "meta_bstar": 0.00014978994,
        "meta_mean_motion_dot": 6.98e-06,
        "meta_mean_motion_ddot": 0,
        "tle_line1": "1 38338U 12025B   25348.93360789  .00000698  00000+0  14979-3 0  9997",
        "tle_line2": "2 38338  98.3324 303.5395 0005216 331.4887  28.6028 14.61715997724427"
      },
      "geometry": {
        "type": "Point",
        "coordinates": [
          116.44386917360454,
          -42.14172269195424
        ]
      }
    }
  ]
}